{
  "norad_id": 57442,
  "name": "STARLINK-30146",
  "history": [
    {
      "epoch": "2026-03-28T20:52:54.784128Z",
      "apogee_km": 484.03784853142133,
      "perigee_km": 481.98471851905924,
      "latitude_deg": 2.4967855469789445e-05,
      "longitude_deg": 12.144834986567595,
      "height_km": 482.86022359617107,
      "semi_major_axis_km": 6861.14828352524,
      "eccentricity": 0.00014962,
      "inclination_deg": 43.0034,
      "raan_deg": 151.6574,
      "arg_perigee_deg": 265.9895,
      "mean_anomaly_deg": 94.0786,
      "mean_motion_rev_day": 15.27592628
    }
  ]
}